ISS (ZARYA)             
1 25544U 98067A   26086.84204457  .00011920  00000+0  22728-3 0  9992
2 25544  51.6344 342.6225 0006212 240.1567 119.8804 15.48591753559148
POISK                   
1 36086U 09060A   26086.84204457  .00011920  00000+0  22728-3 0  9990
2 36086  51.6344 342.6225 0006212 240.1567 119.8804 15.48591753558926
CSS (TIANHE)            
1 48274U 21035A   26086.81975154  .00016258  00000+0  18751-3 0  9994
2 48274  41.4669  97.7682 0004161  40.1011 320.0134 15.61560654280445
ISS (NAUKA)             
1 49044U 21066A   26086.84204457  .00011920  00000+0  22728-3 0  9998
2 49044  51.6344 342.6225 0006212 240.1567 119.8804 15.48591753558968
FREGAT DEB              
1 49271U 11037PF  26086.73247476  .00008740  00000+0  12463-1 0  9992
2 49271  51.6460 246.5783 0961626 100.7568 270.2883 12.40720459214932
CSS (WENTIAN)           
1 53239U 22085A   26086.81975154  .00016258  00000+0  18751-3 0  9997
2 53239  41.4669  97.7682 0004161  40.1011 320.0134 15.61560654280565
CSS (MENGTIAN)          
1 54216U 22143A   26086.81975154  .00016258  00000+0  18751-3 0  9998
2 54216  41.4669  97.7682 0004161  40.1011 320.0134 15.61560654280561
TIANZHOU-9              
1 64786U 25149A   26086.81975154  .00016258  00000+0  18751-3 0  9990
2 64786  41.4669  97.7682 0004161  40.1011 320.0134 15.61560654280564
PROGRESS-MS 32          
1 65586U 25204A   26086.39031751  .00012703  00000+0  24174-3 0  9997
2 65586  51.6344 344.8561 0006230 238.3142 121.7239 15.48581373554509
YOTSUBA-KULOVER         
1 65941U 98067XN  26086.04482611  .00355238  57819-4  11631-2 0  9997
2 65941  51.6189 326.6887 0005413 198.9567 161.1238 15.90043660 26256
BOTAN                   
1 65943U 98067XQ  26086.36952203  .00322871  00000+0  10445-2 0  9997
2 65943  51.6222 325.1299 0005989 199.5412 160.5365 15.89414772 26305
HRC MONOBLOCK CAMERA    
1 66052U 98067XR  26086.85631957  .00048459  00000+0  50370-3 0  9992
2 66052  51.6290 333.7145 0003825 177.1157 182.9861 15.64104445 25238
HTV-X1                  
1 66174U 25241A   26086.84438559  .00002710  00000+0  96895-4 0  9996
2 66174  51.6384 345.5888 0007354 241.4372 118.5870 15.32425085 23725
SZ-21 MODULE            
1 66515U 25246C   26086.70196654  .00037039  00000+0  30140-3 0  9994
2 66515  41.4743  92.3645 0001454 209.3733 150.7028 15.69915920 20909
SHENZHOU-22             
1 66645U 25272A   26086.81975154  .00016258  00000+0  18751-3 0  9993
2 66645  41.4669  97.7682 0004161  40.1011 320.0134 15.61560654280560
SOYUZ-MS 28             
1 66664U 25275A   26086.84204457  .00011920  00000+0  22728-3 0  9991
2 66664  51.6344 342.6225 0006212 240.1567 119.8804 15.48591753559203
